CCSDS_OMM_VERS = 2.0
CREATION_DATE  = 
ORIGINATOR     = 

OBJECT_NAME    = SL-16 R/B
OBJECT_ID      = 1993-016B
CENTER_NAME    = EARTH
REF_FRAME      = TEME
TIME_SYSTEM    = UTC
MEAN_ELEMENT_THEORY = SGP/SGP4

EPOCH          = 2025-12-27T11:26:40.818912
MEAN_MOTION    = 14.15294091
ECCENTRICITY   = .00080458
INCLINATION    = 71.0085
RA_OF_ASC_NODE = 6.8506
ARG_OF_PERICENTER = 68.1321
MEAN_ANOMALY   = 292.0657

EPHEMERIS_TYPE = 0
CLASSIFICATION_TYPE = U
NORAD_CAT_ID   = 22566
ELEMENT_SET_NO = 999
REV_AT_EPOCH   = 69195
BSTAR          = .13226754E-3
MEAN_MOTION_DOT = .21E-5
MEAN_MOTION_DDOT = 0

CCSDS_OMM_VERS = 2.0
CREATION_DATE  = 
ORIGINATOR     = 

OBJECT_NAME    = COSMOS 2242
OBJECT_ID      = 1993-024A
CENTER_NAME    = EARTH
REF_FRAME      = TEME
TIME_SYSTEM    = UTC
MEAN_ELEMENT_THEORY = SGP/SGP4

EPOCH          = 2025-12-27T22:50:03.623712
MEAN_MOTION    = 14.96172302
ECCENTRICITY   = .00161888
INCLINATION    = 82.5195
RA_OF_ASC_NODE = 335.3043
ARG_OF_PERICENTER = 180.3185
MEAN_ANOMALY   = 179.8030

EPHEMERIS_TYPE = 0
CLASSIFICATION_TYPE = U
NORAD_CAT_ID   = 22626
ELEMENT_SET_NO = 999
REV_AT_EPOCH   = 76966
BSTAR          = .27044762E-3
MEAN_MOTION_DOT = .3079E-4
MEAN_MOTION_DDOT = 0

CCSDS_OMM_VERS = 2.0
CREATION_DATE  = 
ORIGINATOR     = 

OBJECT_NAME    = SL-16 R/B
OBJECT_ID      = 1993-059B
CENTER_NAME    = EARTH
REF_FRAME      = TEME
TIME_SYSTEM    = UTC
MEAN_ELEMENT_THEORY = SGP/SGP4

EPOCH          = 2025-12-27T21:46:26.426784
MEAN_MOTION    = 14.17217673
ECCENTRICITY   = .00187295
INCLINATION    = 70.9889
RA_OF_ASC_NODE = 162.5015
ARG_OF_PERICENTER = 314.2789
MEAN_ANOMALY   = 45.6797

EPHEMERIS_TYPE = 0
CLASSIFICATION_TYPE = U
NORAD_CAT_ID   = 22803
ELEMENT_SET_NO = 999
REV_AT_EPOCH   = 66936
BSTAR          = .15067915E-3
MEAN_MOTION_DOT = .257E-5
MEAN_MOTION_DDOT = 0

CCSDS_OMM_VERS = 2.0
CREATION_DATE  = 
ORIGINATOR     = 

OBJECT_NAME    = ARIANE 40 R/B
OBJECT_ID      = 1993-061H
CENTER_NAME    = EARTH
REF_FRAME      = TEME
TIME_SYSTEM    = UTC
MEAN_ELEMENT_THEORY = SGP/SGP4

EPOCH          = 2025-12-27T21:52:54.638400
MEAN_MOTION    = 14.32811794
ECCENTRICITY   = .00116213
INCLINATION    = 98.5057
RA_OF_ASC_NODE = 67.1643
ARG_OF_PERICENTER = 133.3938
MEAN_ANOMALY   = 226.8215

EPHEMERIS_TYPE = 0
CLASSIFICATION_TYPE = U
NORAD_CAT_ID   = 22830
ELEMENT_SET_NO = 999
REV_AT_EPOCH   = 68382
BSTAR          = .13716302E-3
MEAN_MOTION_DOT = .331E-5
MEAN_MOTION_DDOT = 0

CCSDS_OMM_VERS = 2.0
CREATION_DATE  = 
ORIGINATOR     = 

OBJECT_NAME    = COSMOS 2278
OBJECT_ID      = 1994-023A
CENTER_NAME    = EARTH
REF_FRAME      = TEME
TIME_SYSTEM    = UTC
MEAN_ELEMENT_THEORY = SGP/SGP4

EPOCH          = 2025-12-27T14:24:31.161024
MEAN_MOTION    = 14.14349364
ECCENTRICITY   = .00077152
INCLINATION    = 71.0536
RA_OF_ASC_NODE = 325.9189
ARG_OF_PERICENTER = 152.6791
MEAN_ANOMALY   = 207.4739

EPHEMERIS_TYPE = 0
CLASSIFICATION_TYPE = U
NORAD_CAT_ID   = 23087
ELEMENT_SET_NO = 999
REV_AT_EPOCH   = 63461
BSTAR          = .1198933E-3
MEAN_MOTION_DOT = .182E-5
MEAN_MOTION_DDOT = 0

CCSDS_OMM_VERS = 2.0
CREATION_DATE  = 
ORIGINATOR     = 

OBJECT_NAME    = SL-16 R/B
OBJECT_ID      = 1994-023B
CENTER_NAME    = EARTH
REF_FRAME      = TEME
TIME_SYSTEM    = UTC
MEAN_ELEMENT_THEORY = SGP/SGP4

EPOCH          = 2025-12-27T21:24:01.342080
MEAN_MOTION    = 14.14998778
ECCENTRICITY   = .00022298
INCLINATION    = 70.9972
RA_OF_ASC_NODE = 221.6668
ARG_OF_PERICENTER = 1.5000
MEAN_ANOMALY   = 358.6129

EPHEMERIS_TYPE = 0
CLASSIFICATION_TYPE = U
NORAD_CAT_ID   = 23088
ELEMENT_SET_NO = 999
REV_AT_EPOCH   = 63593
BSTAR          = -.56010561E-4
MEAN_MOTION_DOT = -.156E-5
MEAN_MOTION_DDOT = 0

CCSDS_OMM_VERS = 2.0
CREATION_DATE  = 
ORIGINATOR     = 

OBJECT_NAME    = SL-16 R/B
OBJECT_ID      = 1994-074B
CENTER_NAME    = EARTH
REF_FRAME      = TEME
TIME_SYSTEM    = UTC
MEAN_ELEMENT_THEORY = SGP/SGP4

EPOCH          = 2025-12-27T23:06:06.167232
MEAN_MOTION    = 14.79307292
ECCENTRICITY   = .00080479
INCLINATION    = 97.7188
RA_OF_ASC_NODE = 30.6609
ARG_OF_PERICENTER = 94.3025
MEAN_ANOMALY   = 331.4014

EPHEMERIS_TYPE = 0
CLASSIFICATION_TYPE = U
NORAD_CAT_ID   = 23343
ELEMENT_SET_NO = 999
REV_AT_EPOCH   = 67664
BSTAR          = .90747708E-4
MEAN_MOTION_DOT = .626E-5
MEAN_MOTION_DDOT = 0

CCSDS_OMM_VERS = 2.0
CREATION_DATE  = 
ORIGINATOR     = 

OBJECT_NAME    = SL-16 R/B
OBJECT_ID      = 1994-077B
CENTER_NAME    = EARTH
REF_FRAME      = TEME
TIME_SYSTEM    = UTC
MEAN_ELEMENT_THEORY = SGP/SGP4

EPOCH          = 2025-12-27T19:56:07.016064
MEAN_MOTION    = 14.15551413
ECCENTRICITY   = .00050309
INCLINATION    = 70.9825
RA_OF_ASC_NODE = 143.6667
ARG_OF_PERICENTER = 272.6183
MEAN_ANOMALY   = 87.4363

EPHEMERIS_TYPE = 0
CLASSIFICATION_TYPE = U
NORAD_CAT_ID   = 23405
ELEMENT_SET_NO = 999
REV_AT_EPOCH   = 60606
BSTAR          = -.91584871E-4
MEAN_MOTION_DOT = -.227E-5
MEAN_MOTION_DDOT = 0

CCSDS_OMM_VERS = 2.0
CREATION_DATE  = 
ORIGINATOR     = 

OBJECT_NAME    = ARIANE 40+ R/B
OBJECT_ID      = 1995-021B
CENTER_NAME    = EARTH
REF_FRAME      = TEME
TIME_SYSTEM    = UTC
MEAN_ELEMENT_THEORY = SGP/SGP4

EPOCH          = 2025-12-27T19:51:43.437312
MEAN_MOTION    = 14.39707098
ECCENTRICITY   = .00066628
INCLINATION    = 98.4632
RA_OF_ASC_NODE = 69.2333
ARG_OF_PERICENTER = 7.4023
MEAN_ANOMALY   = 104.0556

EPHEMERIS_TYPE = 0
CLASSIFICATION_TYPE = U
NORAD_CAT_ID   = 23561
ELEMENT_SET_NO = 999
REV_AT_EPOCH   = 60890
BSTAR          = .13134293E-3
MEAN_MOTION_DOT = .368E-5
MEAN_MOTION_DDOT = 0

CCSDS_OMM_VERS = 2.0
CREATION_DATE  = 
ORIGINATOR     = 

OBJECT_NAME    = SL-16 R/B
OBJECT_ID      = 1995-058B
CENTER_NAME    = EARTH
REF_FRAME      = TEME
TIME_SYSTEM    = UTC
MEAN_ELEMENT_THEORY = SGP/SGP4

EPOCH          = 2025-12-27T23:24:36.670752
MEAN_MOTION    = 14.15481360
ECCENTRICITY   = .00145061
INCLINATION    = 71.0218
RA_OF_ASC_NODE = 330.8163
ARG_OF_PERICENTER = 234.9349
MEAN_ANOMALY   = 125.0414

EPHEMERIS_TYPE = 0
CLASSIFICATION_TYPE = U
NORAD_CAT_ID   = 23705
ELEMENT_SET_NO = 999
REV_AT_EPOCH   = 55770
BSTAR          = .15511093E-4
MEAN_MOTION_DOT = -.17E-6
MEAN_MOTION_DDOT = 0

CCSDS_OMM_VERS = 2.0
CREATION_DATE  = 
ORIGINATOR     = 

OBJECT_NAME    = SL-16 R/B
OBJECT_ID      = 1996-051B
CENTER_NAME    = EARTH
REF_FRAME      = TEME
TIME_SYSTEM    = UTC
MEAN_ELEMENT_THEORY = SGP/SGP4

EPOCH          = 2025-12-27T15:28:09.438816
MEAN_MOTION    = 14.12397889
ECCENTRICITY   = .00194576
INCLINATION    = 70.7596
RA_OF_ASC_NODE = 327.7341
ARG_OF_PERICENTER = 243.0900
MEAN_ANOMALY   = 116.8232

EPHEMERIS_TYPE = 0
CLASSIFICATION_TYPE = U
NORAD_CAT_ID   = 24298
ELEMENT_SET_NO = 999
REV_AT_EPOCH   = 51147
BSTAR          = .31858532E-4
MEAN_MOTION_DOT = .1E-6
MEAN_MOTION_DDOT = 0

CCSDS_OMM_VERS = 2.0
CREATION_DATE  = 
ORIGINATOR     = 

OBJECT_NAME    = ORBVIEW 2 (SEASTAR)
OBJECT_ID      = 1997-037A
CENTER_NAME    = EARTH
REF_FRAME      = TEME
TIME_SYSTEM    = UTC
MEAN_ELEMENT_THEORY = SGP/SGP4

EPOCH          = 2025-12-27T23:19:15.538368
MEAN_MOTION    = 14.35428373
ECCENTRICITY   = .00011942
INCLINATION    = 98.8464
RA_OF_ASC_NODE = 159.4302
ARG_OF_PERICENTER = 271.5252
MEAN_ANOMALY   = 88.5795

EPHEMERIS_TYPE = 0
CLASSIFICATION_TYPE = U
NORAD_CAT_ID   = 24883
ELEMENT_SET_NO = 999
REV_AT_EPOCH   = 49818
BSTAR          = .1592959E-3
MEAN_MOTION_DOT = .411E-5
MEAN_MOTION_DDOT = 0

