SL-16 R/B               
1 22566U 93016B   25361.47686133  .00000210  00000+0  13227-3 0  9995
2 22566  71.0085   6.8506 0008045  68.1321 292.0657 14.15294091691954
COSMOS 2242             
1 22626U 93024A   25361.95143083  .00003079  00000+0  27045-3 0  9995
2 22626  82.5195 335.3043 0016188 180.3185 179.8030 14.96172302769668
SL-16 R/B               
1 22803U 93059B   25361.90725031  .00000257  00000+0  15068-3 0  9991
2 22803  70.9889 162.5015 0018729 314.2789  45.6797 14.17217673669366
ARIANE 40 R/B           
1 22830U 93061H   25361.91174350  .00000331  00000+0  13716-3 0  9998
2 22830  98.5057  67.1643 0011621 133.3938 226.8215 14.32811794683822
COSMOS 2278             
1 23087U 94023A   25361.60036066  .00000182  00000+0  11989-3 0  9993
2 23087  71.0536 325.9189 0007715 152.6791 207.4739 14.14349364634613
SL-16 R/B               
1 23088U 94023B   25361.89168220 -.00000156  00000+0 -56011-4 0  9992
2 23088  70.9972 221.6668 0002229   1.5000 358.6129 14.14998778635937
SL-16 R/B               
1 23343U 94074B   25361.96257138  .00000626  00000+0  90748-4 0  9992
2 23343  97.7188  30.6609 0008047  94.3025 331.4014 14.79307292676642
SL-16 R/B               
1 23405U 94077B   25361.83063676 -.00000227  00000+0 -91585-4 0  9991
2 23405  70.9825 143.6667 0005030 272.6183  87.4363 14.15551413606066
ARIANE 40+ R/B          
1 23561U 95021B   25361.82758608  .00000368  00000+0  13134-3 0  9996
2 23561  98.4632  69.2333 0006662   7.4023 104.0556 14.39707098608905
SL-16 R/B               
1 23705U 95058B   25361.97542443 -.00000017  00000+0  15511-4 0  9994
2 23705  71.0218 330.8163 0014506 234.9349 125.0414 14.15481360557706
SL-16 R/B               
1 24298U 96051B   25361.64455369  .00000010  00000+0  31859-4 0  9995
2 24298  70.7596 327.7341 0019457 243.0900 116.8232 14.12397889511475
ORBVIEW 2 (SEASTAR)     
1 24883U 97037A   25361.97170762  .00000411  00000+0  15930-3 0  9993
2 24883  98.8464 159.4302 0001194 271.5252  88.5795 14.35428373498181
